NORAD_CAT_ID,OBJECT_NAME,OBJECT_TYPE,EPOCH,MEAN_MOTION,ECCENTRICITY,INCLINATION,RA_OF_ASC_NODE,ARG_OF_PERICENTER,MEAN_ANOMALY,BSTAR,MEAN_MOTION_DOT,MEAN_MOTION_DDOT,TLE_LINE0,TLE_LINE1,TLE_LINE2,SEMIMAJOR_AXIS,PERIOD,APOGEE,PERIGEE,DECAYED
52629.0,STARLINK-4022,PAYLOAD,2024-01-08 00:09:56,15.0883741,0.0001489,53.2162,223.0856,104.6656,255.4501,1.4952e-05,-5e-07,0.0,0 STARLINK-4022,1 52629U 22052AH  24008.00690670 -.00000050  00000-0  14952-4 0  9998,2 52629  53.2162 223.0856 0001489 104.6656 255.4501 15.08837410 91471,6917.888,95.438,540.783,538.723,0.0
52629.0,STARLINK-4022,PAYLOAD,2024-01-08 19:14:35,15.08831158,0.0001514,53.2164,219.5159,119.0461,241.0683,-6.2763e-05,-1.286e-05,0.0,0 STARLINK-4022,1 52629U 22052AH  24008.80179484 -.00001286  00000-0 -62763-4 0  9997,2 52629  53.2164 219.5159 0001514 119.0461 241.0683 15.08831158 91972,6917.907,95.438,540.82,538.725,0.0
52629.0,STARLINK-4022,PAYLOAD,2024-01-08 20:49:59,15.08815572,0.0001446,53.216,219.2199,101.1339,258.9816,-0.00016986,-2.988e-05,0.0,0 STARLINK-4022,1 52629U 22052AH  24008.86804869 -.00002988  00000-0 -16986-3 0  9990,2 52629  53.2160 219.2199 0001446 101.1339 258.9816 15.08815572 91606,6917.955,95.439,540.82,538.82,0.0
52629.0,STARLINK-4022,PAYLOAD,2024-01-09 00:00:45,15.08813254,0.0001482,53.2161,218.6255,101.662,258.4539,-0.00018297,-3.197e-05,0.0,0 STARLINK-4022,1 52629U 22052AH  24009.00053236 -.00003197  00000-0 -18297-3 0  9991,2 52629  53.2161 218.6255 0001482 101.6620 258.4539 15.08813254 92008,6917.962,95.439,540.852,538.802,0.0
52629.0,STARLINK-4022,PAYLOAD,2024-01-09 14:19:14,15.08821284,0.0001262,53.2162,215.9514,90.304,269.8096,-4.4709e-05,-9.99e-06,0.0,0 STARLINK-4022,1 52629U 22052AH  24009.59669049 -.00000999  00000-0 -44709-4 0  9995,2 52629  53.2162 215.9514 0001262  90.3040 269.8096 15.08821284 91716,6917.938,95.439,540.676,538.93,0.0
52629.0,STARLINK-4022,PAYLOAD,2024-01-09 19:05:23,15.0882649,0.0001481,53.2166,215.0589,88.1112,272.005,-3.8343e-06,-3.49e-06,0.0,0 STARLINK-4022,1 52629U 22052AH  24009.79540900 -.00000349  00000-0 -38343-5 0  9998,2 52629  53.2166 215.0589 0001481  88.1112 272.0050 15.08826490 92127,6917.922,95.438,540.811,538.762,0.0
52629.0,STARLINK-4022,PAYLOAD,2024-01-09 20:40:46,15.08829299,0.0001407,53.2163,214.7612,92.5807,267.5346,2.1173e-05,4.9e-07,0.0,0 STARLINK-4022,1 52629U 22052AH  24009.86164624  .00000049  00000-0  21173-4 0  9998,2 52629  53.2163 214.7612 0001407  92.5807 267.5346 15.08829299 91750,6917.913,95.438,540.751,538.805,0.0
52629.0,STARLINK-4022,PAYLOAD,2024-01-10 23:42:19,15.08830418,0.0001447,53.216,209.7059,100.8385,259.277,0.00027578,4.103e-05,0.0,0 STARLINK-4022,1 52629U 22052AH  24010.98772909  .00004103  00000-0  27578-3 0  9993,2 52629  53.2160 209.7059 0001447 100.8385 259.2770 15.08830418 92300,6917.91,95.438,540.776,538.774,0.0
52629.0,STARLINK-4022,PAYLOAD,2024-01-11 18:46:56,15.08847609,0.0001455,53.216,206.1364,101.4047,258.7109,0.00020054,2.906e-05,0.0,0 STARLINK-4022,1 52629U 22052AH  24011.78260317  .00002906  00000-0  20054-3 0  9998,2 52629  53.2160 206.1364 0001455 101.4047 258.7109 15.08847609 92424,6917.857,95.437,540.729,538.716,0.0
52629.0,STARLINK-4022,PAYLOAD,2024-01-12 12:16:11,15.08853516,0.0001423,53.2158,202.8654,95.0644,265.051,0.00014453,2.014e-05,0.0,0 STARLINK-4022,1 52629U 22052AH  24012.51123918  .00002014  00000-0  14453-3 0  9991,2 52629  53.2158 202.8654 0001423  95.0644 265.0510 15.08853516 92153,6917.839,95.437,540.688,538.72,0.0
52629.0,STARLINK-4022,PAYLOAD,2024-01-12 20:13:06,15.08855256,0.0001476,53.2149,201.3785,90.4437,269.6725,0.00016655,2.365e-05,0.0,0 STARLINK-4022,1 52629U 22052AH  24012.84243631  .00002365  00000-0  16655-3 0  9997,2 52629  53.2149 201.3785 0001476  90.4437 269.6725 15.08855256 92587,6917.834,95.437,540.72,538.678,0.0
52629.0,STARLINK-4022,PAYLOAD,2024-01-13 12:06:57,15.08850245,0.000171,53.2156,198.4067,78.7674,281.351,5.811e-05,6.37e-06,0.0,0 STARLINK-4022,1 52629U 22052AH  24013.50483598  .00000637  00000-0  58110-4 0  9992,2 52629  53.2156 198.4067 0001710  78.7674 281.3510 15.08850245 92684,6917.849,95.437,540.897,538.531,0.0
52629.0,STARLINK-4022,PAYLOAD,2024-01-14 11:57:44,15.08846569,0.0001442,53.2149,193.9442,86.7375,273.3782,1.8481e-05,6e-08,0.0,0 STARLINK-4022,1 52629U 22052AH  24014.49843381  .00000006  00000-0  18481-4 0  9998,2 52629  53.2149 193.9442 0001442  86.7375 273.3782 15.08846569 92835,6917.86,95.437,540.723,538.728,0.0
52629.0,STARLINK-4022,PAYLOAD,2024-01-14 18:19:17,15.08848986,0.0001363,53.2155,192.754,89.845,270.2698,-7.6424e-06,-4.1e-06,0.0,0 STARLINK-4022,1 52629U 22052AH  24014.76339145 -.00000410  00000-0 -76424-5 0  9999,2 52629  53.2155 192.7540 0001363  89.8450 270.2698 15.08848986 92497,6917.853,95.437,540.661,538.775,0.0
52629.0,STARLINK-4022,PAYLOAD,2024-01-15 14:59:17,15.08842305,0.0001306,53.2153,188.8891,82.4944,277.6197,4.9859e-05,5.06e-06,0.0,0 STARLINK-4022,1 52629U 22052AH  24015.62451149  .00000506  00000-0  49859-4 0  9999,2 52629  53.2153 188.8891 0001306  82.4944 277.6197 15.08842305 92623,6917.873,95.437,540.642,538.835,0.0
52629.0,STARLINK-4022,PAYLOAD,2024-01-15 18:10:03,15.08844023,0.0001305,53.2153,188.2939,84.2469,275.8672,5.6091e-05,6.05e-06,0.0,0 STARLINK-4022,1 52629U 22052AH  24015.75698974  .00000605  00000-0  56091-4 0  9998,2 52629  53.2153 188.2939 0001305  84.2469 275.8672 15.08844023 93023,6917.868,95.437,540.636,538.83,0.0
52629.0,STARLINK-4022,PAYLOAD,2024-01-16 11:39:18,15.08842128,0.0001315,53.2157,185.0212,87.1259,272.9884,-2.6661e-05,-7.12e-06,0.0,0 STARLINK-4022,1 52629U 22052AH  24016.48563356 -.00000712  00000-0 -26661-4 0  9995,2 52629  53.2157 185.0212 0001315  87.1259 272.9884 15.08842128 93135,6917.874,95.437,540.649,538.829,0.0
52629.0,STARLINK-4022,PAYLOAD,2024-01-16 14:50:05,15.08835425,0.0001397,53.2156,184.4268,87.8863,272.2289,9.6969e-05,1.255e-05,0.0,0 STARLINK-4022,1 52629U 22052AH  24016.61811351  .00001255  00000-0  96969-4 0  9990,2 52629  53.2156 184.4268 0001397  87.8863 272.2289 15.08835425 92779,6917.894,95.438,540.726,538.793,0.0
52629.0,STARLINK-4022,PAYLOAD,2024-01-16 18:00:51,15.08813201,0.0001467,53.2158,183.832,87.1509,272.9651,0.00042594,6.492e-05,0.0,0 STARLINK-4022,1 52629U 22052AH  24016.75059862  .00006492  00000-0  42594-3 0  9998,2 52629  53.2158 183.8320 0001467  87.1509 272.9651 15.08813201 93174,6917.962,95.439,540.842,538.812,0.0
52629.0,STARLINK-4022,PAYLOAD,2024-01-16 22:47:00,15.08848319,0.000135,53.2161,182.9387,95.8503,264.2643,3.8241e-05,3.21e-06,0.0,0 STARLINK-4022,1 52629U 22052AH  24016.94930575  .00000321  00000-0  38241-4 0  9998,2 52629  53.2161 182.9387 0001350  95.8503 264.2643 15.08848319 93209,6917.855,95.437,540.654,538.786,0.0
52629.0,STARLINK-4022,PAYLOAD,2024-01-17 14:40:52,15.08837503,0.0001577,53.2157,179.9635,110.8506,249.2655,3.5542e-06,-2.31e-06,0.0,0 STARLINK-4022,1 52629U 22052AH  24017.61171399 -.00000231  00000-0  35542-5 0  9997,2 52629  53.2157 179.9635 0001577 110.8506 249.2655 15.08837503 92925,6917.888,95.438,540.844,538.662,0.0
52629.0,STARLINK-4022,PAYLOAD,2024-01-17 17:51:38,15.08838932,0.0001616,53.2176,179.3673,109.2992,250.8175,-3.9574e-05,-9.18e-06,0.0,0 STARLINK-4022,1 52629U 22052AH  24017.74419464 -.00000918  00000-0 -39574-4 0  9990,2 52629  53.2176 179.3673 0001616 109.2992 250.8175 15.08838932 93324,6917.884,95.438,540.867,538.631,0.0
52629.0,STARLINK-4022,PAYLOAD,2024-01-18 14:31:39,15.08838205,0.0001534,53.2179,175.5025,106.8158,253.3002,1.0627e-05,-1.19e-06,0.0,0 STARLINK-4022,1 52629U 22052AH  24018.60531606 -.00000119  00000-0  10627-4 0  9999,2 52629  53.2179 175.5025 0001534 106.8158 253.3002 15.08838205 93074,6917.886,95.438,540.812,538.69,0.0
52629.0,STARLINK-4022,PAYLOAD,2024-01-18 17:42:25,15.08840056,0.0001357,53.2173,174.9102,89.282,270.8328,3.6956e-05,3e-06,0.0,0 STARLINK-4022,1 52629U 22052AH  24018.73779506  .00000300  00000-0  36956-4 0  9990,2 52629  53.2173 174.9102 0001357  89.2820 270.8328 15.08840056 93094,6917.88,95.438,540.684,538.806,0.0
52629.0,STARLINK-4022,PAYLOAD,2024-01-19 14:22:26,15.08839132,0.0001386,53.2176,171.0458,87.7372,272.3779,7.9488e-05,9.77e-06,0.0,0 STARLINK-4022,1 52629U 22052AH  24019.59891506  .00000977  00000-0  79488-4 0  9997,2 52629  53.2176 171.0458 0001386  87.7372 272.3779 15.08839132 93221,6917.883,95.438,540.707,538.789,0.0
52629.0,STARLINK-4022,PAYLOAD,2024-01-19 19:08:35,15.08843023,0.0001378,53.2174,170.1532,81.9038,278.211,0.00010763,1.426e-05,0.0,0 STARLINK-4022,1 52629U 22052AH  24019.79763214  .00001426  00000-0  10763-3 0  9993,2 52629  53.2174 170.1532 0001378  81.9038 278.2110 15.08843023 93631,6917.871,95.437,540.689,538.783,0.0
52629.0,STARLINK-4022,PAYLOAD,2024-01-20 14:13:14,15.08834916,0.0001391,53.2176,166.5883,72.4263,287.6881,-3.3952e-06,-3.42e-06,0.0,0 STARLINK-4022,1 52629U 22052AH  24020.59252375 -.00000342  00000-0 -33952-5 0  9999,2 52629  53.2176 166.5883 0001391  72.4263 287.6881 15.08834916 93372,6917.896,95.438,540.723,538.799,0.0
52629.0,STARLINK-4022,PAYLOAD,2024-01-20 18:59:22,15.08842343,0.0001352,53.2172,165.6928,82.0942,278.0204,5.4329e-05,5.77e-06,0.0,0 STARLINK-4022,1 52629U 22052AH  24020.79123674  .00000577  00000-0  54329-4 0  9998,2 52629  53.2172 165.6928 0001352  82.0942 278.0204 15.08842343 93787,6917.873,95.437,540.674,538.803,0.0
52629.0,STARLINK-4022,PAYLOAD,2024-01-21 15:39:23,15.08845595,0.000138,53.2177,161.8262,85.7536,274.3614,1.5636e-05,-3.9e-07,0.0,0 STARLINK-4022,1 52629U 22052AH  24021.65235532 -.00000039  00000-0  15636-4 0  9993,2 52629  53.2177 161.8262 0001380  85.7536 274.3614 15.08845595 93530,6917.863,95.437,540.683,538.774,0.0
52629.0,STARLINK-4022,PAYLOAD,2024-01-22 12:19:24,15.0884182,0.0001552,53.218,157.9688,103.6991,256.4174,6.885e-06,-1.78e-06,0.0,0 STARLINK-4022,1 52629U 22052AH  24022.51347949 -.00000178  00000-0  68850-5 0  9996,2 52629  53.2180 157.9688 0001552 103.6991 256.4174 15.08841820 94044,6917.875,95.437,540.813,538.666,0.0
